     2.10           G: GLONASS NAV DATA                     RINEX VERSION / TYPE
teqc  2015Jun23                         20220717 01:25:43UTCPGM / RUN BY / DATE
Linux 2.4.21-27.ELsmp|Opteron|gcc -static|Linux x86_64|=+   COMMENT
  2022     7     6    4.656612873077D-10                    CORR TO SYSTEM TIME
                                                            END OF HEADER
 2 22  7  7  4 15  0.0 5.234312266111D-04 0.000000000000D+00 1.590000000000D+04
    5.600535156250D+03-2.137992858887D+00 9.313225746155D-10 0.000000000000D+00
    9.729188964844D+03 2.304137229919D+00-0.000000000000D+00-4.000000000000D+00
   -2.286535595703D+04 4.502105712891D-01 2.793967723846D-09 0.000000000000D+00
 8 22  7  7  4 45  0.0-6.606429815292D-05 0.000000000000D+00 1.620000000000D+04
   -1.718252539062D+04 8.975381851196D-01-9.313225746155D-10 0.000000000000D+00
    1.617364550781D+04-9.919128417969D-01-0.000000000000D+00 6.000000000000D+00
    9.776479003906D+03 3.235165596008D+00-0.000000000000D+00 0.000000000000D+00
 1 22  7  7  4 45  0.0 1.106876879930D-05 0.000000000000D+00 1.620000000000D+04
   -1.096908544922D+04-3.951244354248D-01 0.000000000000D+00 0.000000000000D+00
    2.202260888672D+04 8.413763046265D-01-9.313225746155D-10 1.000000000000D+00
   -6.703744628906D+03 3.410460472107D+00 9.313225746155D-10 0.000000000000D+00
 2 22  7  7  4 45  0.0 5.234321579337D-04 0.000000000000D+00 1.620000000000D+04
    2.176255859375D+03-1.643056869507D+00 9.313225746155D-10 0.000000000000D+00
    1.400675439453D+04 2.402956008911D+00-9.313225746155D-10-4.000000000000D+00
   -2.117840625000D+04 1.411752700806D+00 2.793967723846D-09 0.000000000000D+00
12 22  7  7  4 45  0.0 1.918431371450D-05 0.000000000000D+00 1.620000000000D+04
    1.961033203125D+03-7.426271438599D-01 9.313225746155D-10 0.000000000000D+00
    2.077652099609D+04-1.872436523438D+00-0.000000000000D+00-1.000000000000D+00
   -1.464802783203D+04-2.748177528381D+00 1.862645149231D-09 0.000000000000D+00
13 22  7  7  4 45  0.0-2.436432987452D-05-0.000000000000D+00 1.620000000000D+04
    1.142205078125D+04 1.906719207764D-01 1.862645149231D-09 0.000000000000D+00
    2.278745605469D+04 4.957103729248D-02 0.000000000000D+00-2.000000000000D+00
    9.190664062500D+02-3.561863899231D+00 9.313225746155D-10 0.000000000000D+00
 8 22  7  7  5 15  0.0-6.606429815292D-05 0.000000000000D+00 1.800000000000D+04
   -1.536237011719D+04 1.080785751343D+00-9.313225746155D-10 0.000000000000D+00
    1.369079882812D+04-1.760834693909D+00-0.000000000000D+00 6.000000000000D+00
    1.514856396484D+04 2.695349693298D+00-9.313225746155D-10 0.000000000000D+00
 1 22  7  7  5 15  0.0 1.106970012188D-05 0.000000000000D+00 1.800000000000D+04
   -1.119818359375D+04 1.099348068237D-01-0.000000000000D+00 0.000000000000D+00
    2.290688476562D+04 1.140079498291D-01-9.313225746155D-10 1.000000000000D+00
   -3.848706054688D+02 3.564870834351D+00 0.000000000000D+00 0.000000000000D+00
 2 22  7  7  5 15  0.0 5.234340205789D-04 9.094947017729D-13 1.800000000000D+04
   -2.613452148438D+02-1.059930801392D+00 0.000000000000D+00 0.000000000000D+00
    1.820633447266D+04 2.214161872864D+00-9.313225746155D-10-4.000000000000D+00
   -1.784965722656D+04 2.262579917908D+00 1.862645149231D-09 0.000000000000D+00
12 22  7  7  5 15  0.0 1.918431371450D-05-0.000000000000D+00 1.800000000000D+04
    1.040034179688D+02-1.326463699341D+00 0.000000000000D+00 0.000000000000D+00
    1.703238574219D+04-2.241088867188D+00-9.313225746155D-10-1.000000000000D+00
   -1.896353271484D+04-2.015553474426D+00 2.793967723846D-09 0.000000000000D+00
13 22  7  7  5 15  0.0-2.436526119709D-05-0.000000000000D+00 1.800000000000D+04
    1.136722167969D+04-2.842950820923D-01 1.862645149231D-09 0.000000000000D+00
    2.217738964844D+04-7.030963897705D-01-0.000000000000D+00-2.000000000000D+00
   -5.444972656250D+03-3.463368415833D+00 9.313225746155D-10 0.000000000000D+00
14 22  7  7  5 15  0.0 2.496223896742D-05-0.000000000000D+00 1.866000000000D+04
    1.666922607422D+04 1.055756568909D+00 1.862645149231D-09 0.000000000000D+00
    1.426629296875D+04 1.435492515564D+00 9.313225746155D-10-7.000000000000D+00
    1.300954296875D+04-2.932420730591D+00-0.000000000000D+00 0.000000000000D+00
 8 22  7  7  5 45  0.0-6.606336683035D-05 0.000000000000D+00 1.980000000000D+04
   -1.344658642578D+04 1.007376670837D+00-9.313225746155D-10 0.000000000000D+00
    9.890184082031D+03-2.437563896179D+00 0.000000000000D+00 6.000000000000D+00
    1.935543408203D+04 1.948880195618D+00-1.862645149231D-09 0.000000000000D+00
 1 22  7  7  5 45  0.0 1.107063144445D-05 0.000000000000D+00 1.980000000000D+04
   -1.070225976562D+04 4.014472961426D-01-9.313225746155D-10 0.000000000000D+00
    2.236540527344D+04-7.253780364990D-01-0.000000000000D+00 1.000000000000D+00
    5.963802734375D+03 3.443360328674D+00 0.000000000000D+00 0.000000000000D+00
 2 22  7  7  5 45  0.0 5.234368145466D-04 9.094947017729D-13 1.980000000000D+04
   -1.653485351562D+03-4.998321533203D-01 0.000000000000D+00 0.000000000000D+00
    2.180633935547D+04 1.741245269775D+00-9.313225746155D-10-4.000000000000D+00
   -1.313918457031D+04 2.937102317810D+00 1.862645149231D-09 0.000000000000D+00
12 22  7  7  5 45  0.0 1.918431371450D-05-0.000000000000D+00 1.980000000000D+04
   -2.801546875000D+03-1.889118194580D+00-0.000000000000D+00 0.000000000000D+00
    1.288180908203D+04-2.322625160217D+00-9.313225746155D-10-1.000000000000D+00
   -2.180978417969D+04-1.126284599304D+00 2.793967723846D-09 0.000000000000D+00
13 22  7  7  5 45  0.0-2.436619251966D-05-0.000000000000D+00 1.980000000000D+04
    1.030413623047D+04-9.156503677368D-01 9.313225746155D-10 0.000000000000D+00
    2.037037548828D+04-1.266777038574D+00-0.000000000000D+00-2.000000000000D+00
   -1.138800439453D+04-3.097146034241D+00 1.862645149231D-09 0.000000000000D+00
14 22  7  7  5 45  0.0 2.496130764484D-05-0.000000000000D+00 1.980000000000D+04
    1.832555712891D+04 7.419490814209D-01 1.862645149231D-09 0.000000000000D+00
    1.616546484375D+04 6.777143478394D-01 0.000000000000D+00-7.000000000000D+00
    7.296304687500D+03-3.374431610107D+00 0.000000000000D+00 0.000000000000D+00
23 22  7  7  5 45  0.0-4.685204476118D-05-9.094947017729D-13 2.028000000000D+04
   -1.359217529297D+04-2.532322883606D+00-9.313225746155D-10 0.000000000000D+00
    1.055942626953D+04 5.322418212891D-01 0.000000000000D+00 3.000000000000D+00
    1.880975830078D+04-2.126979827881D+00-1.862645149231D-09 0.000000000000D+00
 2 22  7  7  6 15  0.0 5.234386771917D-04 9.094947017729D-13 2.160000000000D+04
   -2.136717773438D+03-6.548786163330D-02-0.000000000000D+00 0.000000000000D+00
    2.433286865234D+04 1.033028602600D+00-9.313225746155D-10-4.000000000000D+00
   -7.413169433594D+03 3.383758544922D+00 9.313225746155D-10 0.000000000000D+00
 1 22  7  7  6 15  0.0 1.107156276703D-05 0.000000000000D+00 2.160000000000D+04
   -9.901557617188D+03 4.468441009521D-01-9.313225746155D-10 0.000000000000D+00
    2.029530615234D+04-1.565038681030D+00-0.000000000000D+00 1.000000000000D+00
    1.185094677734D+04 3.055415153503D+00-9.313225746155D-10 0.000000000000D+00
12 22  7  7  6 15  0.0 1.918431371450D-05-0.000000000000D+00 2.160000000000D+04
   -6.618833007812D+03-2.322382926941D+00-9.313225746155D-10 0.000000000000D+00
    8.835304199219D+03-2.131675720215D+00-9.313225746155D-10-1.000000000000D+00
   -2.296538330078D+04-1.492938995361D-01 2.793967723846D-09 0.000000000000D+00
13 22  7  7  6 15  0.0-2.436619251966D-05-0.000000000000D+00 2.160000000000D+04
    8.034606933594D+03-1.606969833374D+00 0.000000000000D+00 0.000000000000D+00
    1.776887597656D+04-1.578772544861D+00-9.313225746155D-10-2.000000000000D+00
   -1.645078466797D+04-2.491687774658D+00 1.862645149231D-09 0.000000000000D+00
14 22  7  7  6 15  0.0 2.496037632227D-05-0.000000000000D+00 2.160000000000D+04
    1.919777148438D+04 1.921091079712D-01 1.862645149231D-09 0.000000000000D+00
    1.674986474609D+04-7.606506347656D-03-0.000000000000D+00-7.000000000000D+00
    1.018541992188D+03-3.555533409119D+00 9.313225746155D-10 0.000000000000D+00
23 22  7  7  6 15  0.0-4.685483872890D-05-9.094947017729D-13 2.160000000000D+04
   -1.754878564453D+04-1.832776069641D+00-1.862645149231D-09 0.000000000000D+00
    1.173315771484D+04 7.346076965332D-01 0.000000000000D+00 3.000000000000D+00
    1.430264404297D+04-2.848342895508D+00-9.313225746155D-10 0.000000000000D+00
 3 22  7  7  6 15  0.0 5.977507680655D-05 0.000000000000D+00 2.190000000000D+04
    6.938537109375D+03-5.495090484619D-01 0.000000000000D+00 0.000000000000D+00
    1.338694580078D+04 2.770054817200D+00-9.313225746155D-10 5.000000000000D+00
   -2.054494775391D+04 1.610737800598D+00 2.793967723846D-09 0.000000000000D+00
24 22  7  7  6 15  0.0 1.023299992085D-04 1.818989403546D-12 2.208000000000D+04
   -2.344571289062D+03-2.951260566711D+00 0.000000000000D+00 0.000000000000D+00
    1.169543310547D+04 9.062986373901D-01 0.000000000000D+00 2.000000000000D+00
    2.255342626953D+04-7.786626815796D-01-1.862645149231D-09 0.000000000000D+00
 3 22  7  7  6 45  0.0 5.977600812912D-05 0.000000000000D+00 2.340000000000D+04
    6.371033203125D+03-9.749698638916D-02 0.000000000000D+00 0.000000000000D+00
    1.800998535156D+04 2.320931434631D+00-9.313225746155D-10 5.000000000000D+00
   -1.688717236328D+04 2.426816940308D+00 1.862645149231D-09 0.000000000000D+00
 1 22  7  7  6 45  0.0 1.107249408960D-05 0.000000000000D+00 2.340000000000D+04
   -9.234808105469D+03 2.583694458008D-01-9.313225746155D-10 0.000000000000D+00
    1.680004296875D+04-2.290610313416D+00 0.000000000000D+00 1.000000000000D+00
    1.682116894531D+04 2.431206703186D+00-9.313225746155D-10 0.000000000000D+00
 2 22  7  7  6 45  0.0 5.234414711595D-04 9.094947017729D-13 2.340000000000D+04
   -2.011713378906D+03 1.660442352295D-01-0.000000000000D+00 0.000000000000D+00
    2.543547412109D+04 1.760101318359D-01-0.000000000000D+00-4.000000000000D+00
   -1.115011230469D+03 3.568836212158D+00 9.313225746155D-10 0.000000000000D+00
